STARLINK-3884           
1 52497U 22049AY  23241.69516867  .00000426  00000+0  44834-4 0  9992
2 52497  53.2166 232.6034 0001414  86.9532 273.1622 15.08839697 73217
STARLINK-3925           
1 52498U 22049AZ  23242.26649451  .00000310  00000+0  37545-4 0  9996
2 52498  53.2167 220.0343 0001524  86.9246 273.1921 15.08835894 73438
STARLINK-3894           
1 52499U 22049BA  23242.28765113  .00000491  00000+0  48958-4 0  9993
2 52499  53.2168 229.9436 0001409  92.1633 267.9521 15.08837255 73308
STARLINK-3866           
1 52500U 22049BB  23241.99785342  .00000240  00000+0  33187-4 0  9999
2 52500  53.2163 221.2413 0001353  84.0607 276.0540 15.08833029 73391
STARLINK-3907           
1 52501U 22049BC  23242.00058570  .00000217  00000+0  31748-4 0  9994
2 52501  53.2158 231.0323 0001350  93.1398 266.9749 15.08836102 73260
STARLINK-3912           
1 52502U 22049BD  23242.12665312  .00000320  00000+0  38184-4 0  9992
2 52502  53.2167 220.6927 0001428  94.0218 266.0938 15.08839037 73410
STARLINK-3861           
1 52503U 22049BE  23241.99881405  .00000234  00000+0  32764-4 0  9992
2 52503  53.2164 221.2871 0001393  91.3957 268.7194 15.08837501 73398
STARLINK-3951           
1 52533U 22051A   23242.32814558 -.00000334  00000+0 -28780-5 0  9998
2 52533  53.2174 309.9087 0001373  94.4418 265.6731 15.08840483 72260
STARLINK-3952           
1 52534U 22051B   23242.18829488  .00003787  00000+0  25598-3 0  9996
2 52534  53.2162 310.3938 0001254  90.5052 269.6084 15.08831012 72249
STARLINK-3958           
1 52535U 22051C   23242.18461794 -.00001653  00000+0 -85841-4 0  9999
2 52535  53.2185 310.4068 0001091  97.5106 262.6010 15.08832203 72241
STARLINK-3964           
1 52536U 22051D   23242.18093018  .00000172  00000+0  28877-4 0  9999
2 52536  53.2179 310.4242 0001223  90.0827 270.0305 15.08835921 72244
STARLINK-3897           
1 52537U 22051E   23242.17769618  .00055041  00000+0  34069-2 0  9998
2 52537  53.2170 310.4418 0001173  64.8028 295.3086 15.09295473 72246
STARLINK-3933           
1 52538U 22051F   23241.50748579  .00001216  00000+0  94473-4 0  9990
2 52538  53.2166 313.4507 0001375  94.3306 265.7843 15.08843630 72071
STARLINK-3757           
1 52539U 22051G   23242.17357297  .00001486  00000+0  11142-3 0  9998
2 52539  53.2176 310.4556 0001380  89.7908 270.3243 15.08837530 72243
STARLINK-3940           
1 52540U 22051H   23241.69516395 -.00000254  00000+0  21250-5 0  9998
2 52540  53.2171 312.6052 0001214  93.2230 266.8901 15.08842806 72107
STARLINK-3845           
1 52541U 22051J   23242.25959413  .00000398  00000+0  43090-4 0  9997
2 52541  53.2173 315.0726 0001273  87.5456 272.5682 15.08832958 72181
STARLINK-3937           
1 52542U 22051K   23242.35389290  .00000446  00000+0  46144-4 0  9996
2 52542  53.2181 309.6498 0001215  79.4346 280.6783 15.08832772 72276
STARLINK-3926           
1 52543U 22051L   23242.16621018  .00001010  00000+0  81534-4 0  9993
2 52543  53.2173 310.4894 0001290  94.8249 265.2890 15.08832282 72245
STARLINK-3944           
1 52544U 22051M   23242.18599478  .00000648  00000+0  58818-4 0  9995
2 52544  53.2170 315.4170 0001422  92.7348 267.3807 15.08834343 72172
STARLINK-3939           
1 52545U 22051N   23242.36125103 -.00000571  00000+0 -17814-4 0  9994
2 52545  53.2170 309.6162 0001210  94.7384 265.3747 15.08833108 72276
STARLINK-3948           
1 52546U 22051P   23241.91224096  .00001439  00000+0  10850-3 0  9990
2 52546  53.2166 311.2369 0001309  81.7334 278.3807 15.08840034 72211
STARLINK-3869           
1 52547U 22051Q   23241.52727349  .00000322  00000+0  38289-4 0  9994
2 52547  53.2172 318.3594 0001217  90.6974 269.4157 15.08842905 72009
STARLINK-3931           
1 52548U 22051R   23241.47068422  .00000612  00000+0  56529-4 0  9998
2 52548  53.2172 313.6146 0001274  81.8728 278.2409 15.08846055 72078
STARLINK-3935           
1 52549U 22051S   23242.15149019  .00000677  00000+0  60626-4 0  9991
2 52549  53.2178 310.5575 0001351  90.0567 270.0580 15.08836792 72242
STARLINK-3965           
1 52550U 22051T   23242.40541251 -.00000001  00000+0  18048-4 0  9998
2 52550  53.2171 309.4179 0001314  91.0237 269.0905 15.08836452 72284
STARLINK-3969           
1 52551U 22051U   23242.21404951 -.00000214  00000+0  46308-5 0  9990
2 52551  53.2167 310.2776 0001337  91.7874 268.3271 15.08836057 72258
STARLINK-3966           
1 52552U 22051V   23241.46796474  .00000563  00000+0  53453-4 0  9995
2 52552  53.2172 313.6352 0001073  82.2580 277.8534 15.08843159 72076
STARLINK-3858           
1 52553U 22051W   23242.21037087  .00000854  00000+0  71717-4 0  9994
2 52553  53.2163 310.2947 0001277  89.0601 271.0538 15.08837008 72251
STARLINK-3770           
1 52554U 22051X   23242.18231063  .00001218  00000+0  94586-4 0  9995
2 52554  53.2180 315.4180 0001263  89.1445 270.9692 15.08835369 72177
STARLINK-3949           
1 52555U 22051Y   23242.40268701  .00000089  00000+0  23701-4 0  9996
2 52555  53.2171 309.4394 0001383  94.7676 265.3475 15.08837620 72280
STARLINK-3763           
1 52556U 22051Z   23242.33622125 -.00000424  00000+0 -59687-5 0  9991
2 52556  53.2183 302.5129 0001379  87.3124 272.8029 15.15731740 72377
STARLINK-3943           
1 52557U 22051AA  23241.92701133  .00002816  00000+0  19498-3 0  9992
2 52557  53.2166 311.5673 0001414  80.7264 279.3888 15.08831298 72214
STARLINK-3954           
1 52558U 22051AB  23242.19289332  .00001263  00000+0  97465-4 0  9991
2 52558  53.2175 300.3716 0001418  92.7292 267.3863 15.08832178 72383
STARLINK-3953           
1 52559U 22051AC  23242.20395342  .00001004  00000+0  81146-4 0  9995
2 52559  53.2170 300.5040 0001295  90.8116 269.3024 15.08836435 72389
STARLINK-3956           
1 52560U 22051AD  23241.46056831 -.00001310  00000+0 -64237-4 0  9995
2 52560  53.2167 303.6612 0001349  93.0971 267.0175 15.08848954 72202
STARLINK-3955           
1 52561U 22051AE  23241.90630915 -.00001490  00000+0 -75528-4 0  9990
2 52561  53.2170 316.6616 0001299  90.0266 270.0875 15.08834796 72135
STARLINK-3957           
1 52562U 22051AF  23242.18185047 -.00000596  00000+0 -19338-4 0  9996
2 52562  53.2173 300.4199 0001560  98.2914 261.8255 15.08836019 72384
STARLINK-3942           
1 52563U 22051AG  23241.90998672  .00000297  00000+0  36722-4 0  9994
2 52563  53.2176 316.6418 0001434  88.0727 272.0430 15.08839052 72132
STARLINK-3959           
1 52564U 22051AH  23242.36727075 -.00000074  00000+0  13444-4 0  9993
2 52564  53.2174 314.6021 0001391  91.0128 269.1024 15.08832787 72202
STARLINK-3911           
1 52565U 22051AJ  23242.18553111 -.00000751  00000+0 -29133-4 0  9997
2 52565  53.2173 300.4068 0001386  88.1239 271.9912 15.08834039 72388
STARLINK-3938           
1 52566U 22051AK  23241.48310464  .00000938  00000+0  77014-4 0  9998
2 52566  53.2171 318.5589 0001145  94.0115 266.1008 15.08842844 72001
STARLINK-3929           
1 52567U 22051AL  23242.31065300 -.00000747  00000+0 -28836-4 0  9996
2 52567  53.2169 299.8450 0001315  85.6312 274.4831 15.08834939 72407
STARLINK-3930           
1 52568U 22051AM  23242.36583675  .00000951  00000+0  77780-4 0  9999
2 52568  53.2176 299.5920 0001247  90.2310 269.8825 15.08852746 72417
STARLINK-3927           
1 52569U 22051AN  23242.17448940 -.00000035  00000+0  15862-4 0  9991
2 52569  53.2175 300.4527 0001364  89.7249 270.3899 15.08838475 72383
STARLINK-3924           
1 52570U 22051AP  23242.16344865 -.00000152  00000+0  85305-5 0  9993
2 52570  53.2161 300.5044 0001203  80.6301 279.4827 15.08842664 72382
STARLINK-3901           
1 52574U 22051AQ  23242.17080932 -.00000512  00000+0 -14058-4 0  9997
2 52574  53.2173 300.4704 0001248  94.4743 265.6392 15.08839203 72382
STARLINK-3920           
1 52575U 22051AR  23242.35849045 -.00000626  00000+0 -21242-4 0  9995
2 52575  53.2156 299.6283 0000933  78.7905 281.3192 15.08834591 72412
STARLINK-3932           
1 52576U 22051AS  23242.35208336 -.00007713  00000+0 -46663-3 0  9995
2 52576  53.2167 299.6573 0001214  89.0379 271.0752 15.08869683 72418
STARLINK-3836           
1 52577U 22051AT  23242.20438636 -.00000893  00000+0 -38030-4 0  9990
2 52577  53.2172 315.3217 0001329  79.4829 280.6313 15.08840478 72180
STARLINK-3833           
1 52578U 22051AU  23242.34055057 -.00000953  00000+0 -41803-4 0  9997
2 52578  53.2166 314.7113 0000856  67.6376 292.4707 15.08841559 72204
STARLINK-3893           
1 52579U 22051AV  23242.39575543  .00000497  00000+0  49340-4 0  9995
2 52579  53.2174 314.4597 0001413  69.3123 290.8021 15.08834796 72213
STARLINK-3919           
1 52580U 22051AW  23241.60550140  .00002556  00000+0  17860-3 0  9995
2 52580  53.2167 318.0210 0001261  87.5916 272.5220 15.08849081 72022
STARLINK-3915           
1 52581U 22051AX  23242.34745468 -.00000132  00000+0  97857-5 0  9992
2 52581  53.2173 299.6754 0001416  90.3370 269.7784 15.08833953 72412
STARLINK-3886           
1 52582U 22051AY  23242.35481232  .00000360  00000+0  40708-4 0  9994
2 52582  53.2172 299.6428 0001548  85.3738 274.7431 15.08836583 72415
STARLINK-3895           
1 52583U 22051AZ  23242.34377460 -.00000282  00000+0  36154-6 0  9997
2 52583  53.2176 299.6944 0001252  93.3767 266.7369 15.08833530 72416
STARLINK-3922           
1 52584U 22051BA  23242.35113002  .00001057  00000+0  84486-4 0  9998
2 52584  53.2165 299.6593 0001410  88.8137 271.3017 15.08838932 72414
STARLINK-3906           
1 52585U 22051BB  23242.58334491 -.00427683  00000+0 -27660-1 0  9998
2 52585  53.2159 298.5858 0001251  80.9216 198.9998 15.09927437 72450
STARLINK-3910           
1 52586U 22051BC  23242.14137000  .00001502  00000+0  11246-3 0  9999
2 52586  53.2177 300.6054 0001415  98.3026 261.8127 15.08835177 72382
STARLINK-3867           
1 52587U 22051BD  23242.39878975  .00026348  00000+0  16588-2 0  9998
2 52587  53.2172 299.4474 0001573  93.2778 266.8395 15.09029578 72420
